start=new Date('2023-01-18T00:00:00.000Z').valueOf();
sats=[{"OBJECT_NAME":"STARLINK-1525","ELEMENT_SET_NO":"999","MEAN_MOTION_DDOT":"0.0000000000000","RCS_SIZE":"LARGE","OBJECT_ID":"2020-055AR","NORAD_CAT_ID":"46066","ARG_OF_PERICENTER":"89.2888","REV_AT_EPOCH":"13645","BSTAR":"0.00005794900000","TLE_LINE1":"1 46066U 20055AR  23017.89958610  .00000582  00000-0  57949-4 0  9996","REF_FRAME":"TEME","PERIOD":"95.592","MEAN_MOTION_DOT":"0.00000582","ECCENTRICITY":"0.00013190","SITE":"AFETR","EPHEMERIS_TYPE":"0","MEAN_ELEMENT_THEORY":"SGP4","INCLINATION":"53.0535","COUNTRY_CODE":"US","TIME_SYSTEM":"UTC","APOAPSIS":"548.130","SEMIMAJOR_AXIS":"6925.351","CENTER_NAME":"EARTH","RA_OF_ASC_NODE":"204.7667","TLE_LINE2":"2 46066  53.0535 204.7667 0001319  89.2888 270.8252 15.06399113136457","GP_ID":"223378075","MEAN_ANOMALY":"270.8252","MEAN_MOTION":"15.06399113","LAUNCH_DATE":"2020-08-07","PERIAPSIS":"546.303","CLASSIFICATION_TYPE":"U","OBJECT_TYPE":"PAYLOAD","EPOCH":"2023-01-17T21:35:24.239040","FILE":"3753286","DECAY_DATE":null},{"LAUNCH_DATE":"2020-08-07","MEAN_MOTION":"15.06402406","EPOCH":"2023-01-17T21:39:20.781504","FILE":"3753286","DECAY_DATE":null,"PERIAPSIS":"546.338","CLASSIFICATION_TYPE":"U","OBJECT_TYPE":"PAYLOAD","TIME_SYSTEM":"UTC","SEMIMAJOR_AXIS":"6925.341","APOAPSIS":"548.075","CENTER_NAME":"EARTH","COUNTRY_CODE":"US","MEAN_ANOMALY":"270.6205","RA_OF_ASC_NODE":"204.7409","GP_ID":"223378325","TLE_LINE2":"2 46067  53.0524 204.7409 0001254  89.4928 270.6205 15.06402406136462","EPHEMERIS_TYPE":"0","MEAN_ELEMENT_THEORY":"SGP4","INCLINATION":"53.0524","PERIOD":"95.592","ECCENTRICITY":"0.00012540","SITE":"AFETR","MEAN_MOTION_DOT":"0.00001555","REV_AT_EPOCH":"13646","TLE_LINE1":"1 46067U 20055AS  23017.90232386  .00001555  00000-0  12327-3 0  9995","BSTAR":"0.00012327000000","REF_FRAME":"TEME","NORAD_CAT_ID":"46067","ARG_OF_PERICENTER":"89.4928","ELEMENT_SET_NO":"999","OBJECT_NAME":"STARLINK-1529","OBJECT_ID":"2020-055AS","RCS_SIZE":"LARGE","MEAN_MOTION_DDOT":"0.0000000000000"},{"FILE":"3753286","EPOCH":"2023-01-17T18:44:11.593536","DECAY_DATE":null,"OBJECT_TYPE":"PAYLOAD","PERIAPSIS":"546.267","CLASSIFICATION_TYPE":"U","LAUNCH_DATE":"2020-08-07","MEAN_MOTION":"15.06401382","INCLINATION":"53.0529","MEAN_ELEMENT_THEORY":"SGP4","EPHEMERIS_TYPE":"0","MEAN_ANOMALY":"273.5472","GP_ID":"223379076","TLE_LINE2":"2 46068  53.0529 205.2880 0001361  86.5672 273.5472 15.06401382136448","RA_OF_ASC_NODE":"205.2880","APOAPSIS":"548.152","CENTER_NAME":"EARTH","SEMIMAJOR_AXIS":"6925.344","TIME_SYSTEM":"UTC","COUNTRY_CODE":"US","REF_FRAME":"TEME","TLE_LINE1":"1 46068U 20055AT  23017.78068974  .00002131  00000-0  16192-3 0  9997","BSTAR":"0.00016192000000","REV_AT_EPOCH":"13644","SITE":"AFETR","ECCENTRICITY":"0.00013610","MEAN_MOTION_DOT":"0.00002131","PERIOD":"95.592","RCS_SIZE":"LARGE","OBJECT_ID":"2020-055AT","MEAN_MOTION_DDOT":"0.0000000000000","ELEMENT_SET_NO":"999","OBJECT_NAME":"STARLINK-1532","ARG_OF_PERICENTER":"86.5672","NORAD_CAT_ID":"46068"},{"REF_FRAME":"TEME","REV_AT_EPOCH":"13645","BSTAR":"0.00000095790000","TLE_LINE1":"1 46069U 20055AU  23017.79637775 -.00000267  00000-0  95790-6 0  9993","SITE":"AFETR","ECCENTRICITY":"0.00016170","MEAN_MOTION_DOT":"-0.00000267","PERIOD":"95.592","OBJECT_ID":"2020-055AU","RCS_SIZE":"LARGE","MEAN_MOTION_DDOT":"0.0000000000000","ELEMENT_SET_NO":"999","OBJECT_NAME":"STARLINK-1533","ARG_OF_PERICENTER":"98.4388","NORAD_CAT_ID":"46069","FILE":"3753286","DECAY_DATE":null,"EPOCH":"2023-01-17T19:06:47.037600","CLASSIFICATION_TYPE":"U","PERIAPSIS":"546.078","OBJECT_TYPE":"PAYLOAD","LAUNCH_DATE":"2020-08-07","MEAN_MOTION":"15.06404972","MEAN_ELEMENT_THEORY":"SGP4","INCLINATION":"53.0544","EPHEMERIS_TYPE":"0","MEAN_ANOMALY":"261.6784","RA_OF_ASC_NODE":"205.2326","TLE_LINE2":"2 46069  53.0544 205.2326 0001617  98.4388 261.6784 15.06404972136454","GP_ID":"223378821","TIME_SYSTEM":"UTC","APOAPSIS":"548.318","SEMIMAJOR_AXIS":"6925.333","CENTER_NAME":"EARTH","COUNTRY_CODE":"US"},{"MEAN_MOTION":"15.06397726","LAUNCH_DATE":"2020-08-07","OBJECT_TYPE":"PAYLOAD","CLASSIFICATION_TYPE":"U","PERIAPSIS":"546.317","FILE":"3753286","DECAY_DATE":null,"EPOCH":"2023-01-17T21:03:33.446880","EPHEMERIS_TYPE":"0","INCLINATION":"53.0531","MEAN_ELEMENT_THEORY":"SGP4","COUNTRY_CODE":"US","SEMIMAJOR_AXIS":"6925.356","APOAPSIS":"548.124","CENTER_NAME":"EARTH","TIME_SYSTEM":"UTC","GP_ID":"223377577","TLE_LINE2":"2 46070  53.0531 204.8712 0001305  92.4632 267.6506 15.06397726136463","RA_OF_ASC_NODE":"204.8712","MEAN_ANOMALY":"267.6506","BSTAR":"0.00003861900000","TLE_LINE1":"1 46070U 20055AV  23017.87747045  .00000294  00000-0  38619-4 0  9990","REV_AT_EPOCH":"13646","REF_FRAME":"TEME","PERIOD":"95.592","MEAN_MOTION_DOT":"0.00000294","SITE":"AFETR","ECCENTRICITY":"0.00013050","OBJECT_NAME":"STARLINK-1536","ELEMENT_SET_NO":"999","MEAN_MOTION_DDOT":"0.0000000000000","RCS_SIZE":"LARGE","OBJECT_ID":"2020-055AV","NORAD_CAT_ID":"46070","ARG_OF_PERICENTER":"92.4632"},{"ARG_OF_PERICENTER":"94.6127","NORAD_CAT_ID":"46071","MEAN_MOTION_DDOT":"0.0000000000000","OBJECT_ID":"2020-055AW","RCS_SIZE":"LARGE","OBJECT_NAME":"STARLINK-1538","ELEMENT_SET_NO":"999","MEAN_MOTION_DOT":"0.00001052","SITE":"AFETR","ECCENTRICITY":"0.00015250","PERIOD":"95.592","REF_FRAME":"TEME","BSTAR":"0.00008948800000","TLE_LINE1":"1 46071U 20055AW  23017.89590131  .00001052  00000-0  89488-4 0  9998","REV_AT_EPOCH":"13646","GP_ID":"223377826","TLE_LINE2":"2 46071  53.0522 204.7835 0001525  94.6127 265.5036 15.06397204136462","RA_OF_ASC_NODE":"204.7835","MEAN_ANOMALY":"265.5036","COUNTRY_CODE":"US","APOAPSIS":"548.278","CENTER_NAME":"EARTH","SEMIMAJOR_AXIS":"6925.357","TIME_SYSTEM":"UTC","INCLINATION":"53.0522","MEAN_ELEMENT_THEORY":"SGP4","EPHEMERIS_TYPE":"0","OBJECT_TYPE":"PAYLOAD","PERIAPSIS":"546.166","CLASSIFICATION_TYPE":"U","DECAY_DATE":null,"FILE":"3753286","EPOCH":"2023-01-17T21:30:05.873184","MEAN_MOTION":"15.06397204","LAUNCH_DATE":"2020-08-07"},{"MEAN_ELEMENT_THEORY":"SGP4","INCLINATION":"53.0518","EPHEMERIS_TYPE":"0","RA_OF_ASC_NODE":"205.2647","GP_ID":"223378576","TLE_LINE2":"2 46072  53.0518 205.2647 0001354  80.5469 279.5673 15.06395069136434","MEAN_ANOMALY":"279.5673","COUNTRY_CODE":"US","TIME_SYSTEM":"UTC","APOAPSIS":"548.166","SEMIMAJOR_AXIS":"6925.364","CENTER_NAME":"EARTH","PERIAPSIS":"546.291","CLASSIFICATION_TYPE":"U","OBJECT_TYPE":"PAYLOAD","FILE":"3753286","EPOCH":"2023-01-17T18:54:48.580992","DECAY_DATE":null,"MEAN_MOTION":"15.06395069","LAUNCH_DATE":"2020-08-07","MEAN_MOTION_DDOT":"0.0000000000000","RCS_SIZE":"LARGE","OBJECT_ID":"2020-055AX","OBJECT_NAME":"STARLINK-1539","ELEMENT_SET_NO":"999","ARG_OF_PERICENTER":"80.5469","NORAD_CAT_ID":"46072","REF_FRAME":"TEME","REV_AT_EPOCH":"13643","BSTAR":"-0.00014099000000","TLE_LINE1":"1 46072U 20055AX  23017.78806228 -.00002381  00000-0 -14099-3 0  9997","MEAN_MOTION_DOT":"-0.00002381","ECCENTRICITY":"0.00013540","SITE":"AFETR","PERIOD":"95.592"},{"OBJECT_TYPE":"PAYLOAD","CLASSIFICATION_TYPE":"U","PERIAPSIS":"546.245","FILE":"3753286","DECAY_DATE":null,"EPOCH":"2023-01-17T19:17:23.927424","MEAN_MOTION":"15.06402257","LAUNCH_DATE":"2020-08-07","INCLINATION":"53.0524","MEAN_ELEMENT_THEORY":"SGP4","EPHEMERIS_TYPE":"0","GP_ID":"223379322","TLE_LINE2":"2 46073  53.0524 205.1863 0001388  90.8890 269.2258 15.06402257136444","RA_OF_ASC_NODE":"205.1863","MEAN_ANOMALY":"269.2258","COUNTRY_CODE":"US","APOAPSIS":"548.168","CENTER_NAME":"EARTH","SEMIMAJOR_AXIS":"6925.342","TIME_SYSTEM":"UTC","REF_FRAME":"TEME","TLE_LINE1":"1 46073U 20055AY  23017.80374916  .00001055  00000-0  89705-4 0  9997","BSTAR":"0.00008970500000","REV_AT_EPOCH":"13644","MEAN_MOTION_DOT":"0.00001055","SITE":"AFETR","ECCENTRICITY":"0.00013880","PERIOD":"95.592","MEAN_MOTION_DDOT":"0.0000000000000","OBJECT_ID":"2020-055AY","RCS_SIZE":"LARGE","OBJECT_NAME":"STARLINK-1542","ELEMENT_SET_NO":"999","ARG_OF_PERICENTER":"90.8890","NORAD_CAT_ID":"46073"},{"MEAN_ELEMENT_THEORY":"SGP4","INCLINATION":"53.0533","EPHEMERIS_TYPE":"0","MEAN_ANOMALY":"268.3652","RA_OF_ASC_NODE":"205.2545","TLE_LINE2":"2 46074  53.0533 205.2545 0001216  91.7477 268.3652 15.06399391136435","GP_ID":"223378076","TIME_SYSTEM":"UTC","APOAPSIS":"548.058","CENTER_NAME":"EARTH","SEMIMAJOR_AXIS":"6925.350","COUNTRY_CODE":"US","EPOCH":"2023-01-17T18:56:10.327488","FILE":"3753286","DECAY_DATE":null,"PERIAPSIS":"546.373","CLASSIFICATION_TYPE":"U","OBJECT_TYPE":"PAYLOAD","LAUNCH_DATE":"2020-08-07","MEAN_MOTION":"15.06399391","RCS_SIZE":"LARGE","OBJECT_ID":"2020-055AZ","MEAN_MOTION_DDOT":"0.0000000000000","ELEMENT_SET_NO":"999","OBJECT_NAME":"STARLINK-1549","ARG_OF_PERICENTER":"91.7477","NORAD_CAT_ID":"46074","REF_FRAME":"TEME","REV_AT_EPOCH":"13643","BSTAR":"0.00018532000000","TLE_LINE1":"1 46074U 20055AZ  23017.78900842  .00002480  00000-0  18532-3 0  9990","SITE":"AFETR","ECCENTRICITY":"0.00012160","MEAN_MOTION_DOT":"0.00002480","PERIOD":"95.592"},{"MEAN_ANOMALY":"270.7618","RA_OF_ASC_NODE":"204.8491","TLE_LINE2":"2 46075  53.0533 204.8491 0001372  89.3528 270.7618 15.06400086135920","GP_ID":"223355224","TIME_SYSTEM":"UTC","CENTER_NAME":"EARTH","APOAPSIS":"548.163","SEMIMAJOR_AXIS":"6925.348","COUNTRY_CODE":"US","MEAN_ELEMENT_THEORY":"SGP4","INCLINATION":"53.0533","EPHEMERIS_TYPE":"0","FILE":"3753131","DECAY_DATE":null,"EPOCH":"2023-01-17T21:08:51.800640","CLASSIFICATION_TYPE":"U","PERIAPSIS":"546.263","OBJECT_TYPE":"PAYLOAD","LAUNCH_DATE":"2020-08-07","MEAN_MOTION":"15.06400086","ARG_OF_PERICENTER":"89.3528","NORAD_CAT_ID":"46075","OBJECT_ID":"2020-055BA","RCS_SIZE":"LARGE","MEAN_MOTION_DDOT":"0.0000000000000","ELEMENT_SET_NO":"999","OBJECT_NAME":"STARLINK-1551","ECCENTRICITY":"0.00013720","SITE":"AFETR","MEAN_MOTION_DOT":"0.00000782","PERIOD":"95.592","REF_FRAME":"TEME","REV_AT_EPOCH":"13592","BSTAR":"0.00007140500000","TLE_LINE1":"1 46075U 20055BA  23017.88115510  .00000782  00000-0  71405-4 0  9994"}];
